start=new Date('2022-04-11T00:00:00.000Z').valueOf();
sats=[{"APOAPSIS":"548.609","MEAN_MOTION":"15.06398513","GP_ID":"200912845","REF_FRAME":"TEME","CENTER_NAME":"EARTH","NORAD_CAT_ID":"47835","MEAN_MOTION_DOT":"0.00002528","RCS_SIZE":"LARGE","PERIOD":"95.592","PERIAPSIS":"545.828","ELEMENT_SET_NO":"999","EPHEMERIS_TYPE":"0","MEAN_MOTION_DDOT":"0.0000000000000","CLASSIFICATION_TYPE":"U","MEAN_ELEMENT_THEORY":"SGP4","OBJECT_TYPE":"PAYLOAD","MEAN_ANOMALY":"302.7936","INCLINATION":"53.0519","OBJECT_ID":"2021-018BA","FILE":"3396290","EPOCH":"2022-04-10T18:22:43.529376","TLE_LINE2":"2 47835  53.0519 191.3017 0002008  57.3247 302.7936 15.06398513 60818","OBJECT_NAME":"STARLINK-2425","ARG_OF_PERICENTER":"57.3247","LAUNCH_DATE":"2021-03-11","ECCENTRICITY":"0.00020080","RA_OF_ASC_NODE":"191.3017","REV_AT_EPOCH":"6081","BSTAR":"0.00018854000000","TLE_LINE1":"1 47835U 21018BA  22100.76578159  .00002528  00000-0  18854-3 0  9998","DECAY_DATE":null,"TIME_SYSTEM":"UTC","SEMIMAJOR_AXIS":"6925.353","COUNTRY_CODE":"US","SITE":"AFETR"},{"MEAN_MOTION":"15.06403433","APOAPSIS":"548.377","GP_ID":"200941323","REF_FRAME":"TEME","CENTER_NAME":"EARTH","NORAD_CAT_ID":"47836","RCS_SIZE":"LARGE","MEAN_MOTION_DOT":"0.00001085","ELEMENT_SET_NO":"999","PERIOD":"95.592","PERIAPSIS":"546.029","MEAN_MOTION_DDOT":"0.0000000000000","EPHEMERIS_TYPE":"0","CLASSIFICATION_TYPE":"U","OBJECT_ID":"2021-018BB","FILE":"3396586","OBJECT_TYPE":"PAYLOAD","MEAN_ELEMENT_THEORY":"SGP4","MEAN_ANOMALY":"305.4692","INCLINATION":"53.0546","ECCENTRICITY":"0.00016950","LAUNCH_DATE":"2021-03-11","ARG_OF_PERICENTER":"54.6455","TLE_LINE2":"2 47836  53.0546 186.3384 0001695  54.6455 305.4692 15.06403433 61225","OBJECT_NAME":"STARLINK-2426","EPOCH":"2022-04-10T18:15:25.153920","TLE_LINE1":"1 47836U 21018BB  22100.76070780  .00001085  00000-0  91718-4 0  9994","BSTAR":"0.00009171800000","RA_OF_ASC_NODE":"186.3384","REV_AT_EPOCH":"6122","TIME_SYSTEM":"UTC","DECAY_DATE":null,"COUNTRY_CODE":"US","SEMIMAJOR_AXIS":"6925.338","SITE":"AFETR"},{"SITE":"AFETR","SEMIMAJOR_AXIS":"6925.339","COUNTRY_CODE":"US","TIME_SYSTEM":"UTC","DECAY_DATE":null,"REV_AT_EPOCH":"6112","RA_OF_ASC_NODE":"167.7485","BSTAR":"0.00043370000000","TLE_LINE1":"1 47837U 21018BC  22100.44651199  .00006185  00000-0  43370-3 0  9995","ARG_OF_PERICENTER":"44.3734","OBJECT_NAME":"STARLINK-2427","TLE_LINE2":"2 47837  53.0523 167.7485 0001897  44.3734 315.7406 15.06403275 61126","EPOCH":"2022-04-10T10:42:58.635936","ECCENTRICITY":"0.00018970","LAUNCH_DATE":"2021-03-11","MEAN_ANOMALY":"315.7406","OBJECT_TYPE":"PAYLOAD","MEAN_ELEMENT_THEORY":"SGP4","INCLINATION":"53.0523","OBJECT_ID":"2021-018BC","FILE":"3396407","CLASSIFICATION_TYPE":"U","MEAN_MOTION_DDOT":"0.0000000000000","EPHEMERIS_TYPE":"0","ELEMENT_SET_NO":"999","PERIAPSIS":"545.890","PERIOD":"95.592","MEAN_MOTION_DOT":"0.00006185","RCS_SIZE":"LARGE","NORAD_CAT_ID":"47837","CENTER_NAME":"EARTH","REF_FRAME":"TEME","GP_ID":"200915731","MEAN_MOTION":"15.06403275","APOAPSIS":"548.517"},{"PERIAPSIS":"546.047","PERIOD":"95.591","ELEMENT_SET_NO":"999","RCS_SIZE":"LARGE","MEAN_MOTION_DOT":"0.00002076","NORAD_CAT_ID":"47838","CENTER_NAME":"EARTH","REF_FRAME":"TEME","GP_ID":"200940322","APOAPSIS":"548.314","MEAN_MOTION":"15.06410809","SITE":"AFETR","COUNTRY_CODE":"US","SEMIMAJOR_AXIS":"6925.315","DECAY_DATE":null,"TIME_SYSTEM":"UTC","BSTAR":"0.00015815000000","TLE_LINE1":"1 47838U 21018BD  22100.72479287  .00002076  00000-0  15815-3 0  9991","REV_AT_EPOCH":"6121","RA_OF_ASC_NODE":"186.4937","LAUNCH_DATE":"2021-03-11","ECCENTRICITY":"0.00016370","OBJECT_NAME":"STARLINK-2429","TLE_LINE2":"2 47838  53.0548 186.4937 0001637  56.6321 303.4825 15.06410809 61214","EPOCH":"2022-04-10T17:23:42.103968","ARG_OF_PERICENTER":"56.6321","FILE":"3396586","OBJECT_ID":"2021-018BD","MEAN_ANOMALY":"303.4825","OBJECT_TYPE":"PAYLOAD","MEAN_ELEMENT_THEORY":"SGP4","INCLINATION":"53.0548","CLASSIFICATION_TYPE":"U","EPHEMERIS_TYPE":"0","MEAN_MOTION_DDOT":"0.0000000000000"},{"BSTAR":"0.00001170000000","TLE_LINE1":"1 47839U 21018BE  22100.42163493 -.00000107  00000-0  11700-4 0  9992","RA_OF_ASC_NODE":"157.8411","REV_AT_EPOCH":"6160","DECAY_DATE":null,"TIME_SYSTEM":"UTC","COUNTRY_CODE":"US","SEMIMAJOR_AXIS":"6925.361","SITE":"AFETR","EPHEMERIS_TYPE":"0","MEAN_MOTION_DDOT":"0.0000000000000","CLASSIFICATION_TYPE":"U","FILE":"3396223","OBJECT_ID":"2021-018BE","MEAN_ANOMALY":"298.7479","OBJECT_TYPE":"PAYLOAD","MEAN_ELEMENT_THEORY":"SGP4","INCLINATION":"53.0530","LAUNCH_DATE":"2021-03-11","ECCENTRICITY":"0.00015250","OBJECT_NAME":"STARLINK-2431","TLE_LINE2":"2 47839  53.0530 157.8411 0001525  61.3663 298.7479 15.06395827 61609","EPOCH":"2022-04-10T10:07:09.257952","ARG_OF_PERICENTER":"61.3663","NORAD_CAT_ID":"47839","RCS_SIZE":"LARGE","MEAN_MOTION_DOT":"-0.00000107","PERIOD":"95.592","PERIAPSIS":"546.170","ELEMENT_SET_NO":"999","APOAPSIS":"548.282","MEAN_MOTION":"15.06395827","GP_ID":"200908201","REF_FRAME":"TEME","CENTER_NAME":"EARTH"},{"MEAN_MOTION_DDOT":"0.0000000000000","EPHEMERIS_TYPE":"0","CLASSIFICATION_TYPE":"U","OBJECT_TYPE":"PAYLOAD","MEAN_ELEMENT_THEORY":"SGP4","INCLINATION":"53.0545","MEAN_ANOMALY":"308.7906","FILE":"3396586","OBJECT_ID":"2021-018BF","TLE_LINE2":"2 47840  53.0545 166.6159 0001806  51.3244 308.7906 15.06413783 61496","OBJECT_NAME":"STARLINK-2432","EPOCH":"2022-04-10T16:43:53.599296","ARG_OF_PERICENTER":"51.3244","LAUNCH_DATE":"2021-03-11","ECCENTRICITY":"0.00018060","RA_OF_ASC_NODE":"166.6159","REV_AT_EPOCH":"6149","BSTAR":"0.00042135000000","TLE_LINE1":"1 47840U 21018BF  22100.69714814  .00006002  00000-0  42135-3 0  9996","DECAY_DATE":null,"TIME_SYSTEM":"UTC","SEMIMAJOR_AXIS":"6925.306","COUNTRY_CODE":"US","SITE":"AFETR","APOAPSIS":"548.422","MEAN_MOTION":"15.06413783","GP_ID":"200941824","REF_FRAME":"TEME","CENTER_NAME":"EARTH","NORAD_CAT_ID":"47840","MEAN_MOTION_DOT":"0.00006002","RCS_SIZE":"LARGE","PERIAPSIS":"545.921","PERIOD":"95.591","ELEMENT_SET_NO":"999"},{"TLE_LINE1":"1 47841U 21018BG  22100.69347444 -.00000461  00000-0 -12071-4 0  9990","BSTAR":"-0.00001207100000","RA_OF_ASC_NODE":"166.6304","REV_AT_EPOCH":"6149","TIME_SYSTEM":"UTC","DECAY_DATE":null,"COUNTRY_CODE":"US","SEMIMAJOR_AXIS":"6925.359","SITE":"AFETR","EPHEMERIS_TYPE":"0","MEAN_MOTION_DDOT":"0.0000000000000","CLASSIFICATION_TYPE":"U","FILE":"3396586","OBJECT_ID":"2021-018BG","INCLINATION":"53.0550","OBJECT_TYPE":"PAYLOAD","MEAN_ELEMENT_THEORY":"SGP4","MEAN_ANOMALY":"292.7267","ECCENTRICITY":"0.00014350","LAUNCH_DATE":"2021-03-11","ARG_OF_PERICENTER":"67.3874","TLE_LINE2":"2 47841  53.0550 166.6304 0001435  67.3874 292.7267 15.06396583 61499","OBJECT_NAME":"STARLINK-2433","EPOCH":"2022-04-10T16:38:36.191616","NORAD_CAT_ID":"47841","RCS_SIZE":"LARGE","MEAN_MOTION_DOT":"-0.00000461","ELEMENT_SET_NO":"999","PERIAPSIS":"546.230","PERIOD":"95.592","MEAN_MOTION":"15.06396583","APOAPSIS":"548.218","GP_ID":"200942075","REF_FRAME":"TEME","CENTER_NAME":"EARTH"},{"OBJECT_TYPE":"PAYLOAD","MEAN_ANOMALY":"310.9845","MEAN_ELEMENT_THEORY":"SGP4","INCLINATION":"53.0530","OBJECT_ID":"2021-018BH","FILE":"3396586","TLE_LINE2":"2 47842  53.0530 196.3983 0001790  49.1299 310.9845 15.06412182 61134","OBJECT_NAME":"STARLINK-2434","EPOCH":"2022-04-10T17:54:13.795200","ARG_OF_PERICENTER":"49.1299","LAUNCH_DATE":"2021-03-11","ECCENTRICITY":"0.00017900","MEAN_MOTION_DDOT":"0.0000000000000","EPHEMERIS_TYPE":"0","CLASSIFICATION_TYPE":"U","SEMIMAJOR_AXIS":"6925.311","COUNTRY_CODE":"US","SITE":"AFETR","RA_OF_ASC_NODE":"196.3983","REV_AT_EPOCH":"6113","BSTAR":"0.00145650000000","TLE_LINE1":"1 47842U 21018BH  22100.74599300  .00021487  00000-0  14565-2 0  9994","DECAY_DATE":null,"TIME_SYSTEM":"UTC","REF_FRAME":"TEME","CENTER_NAME":"EARTH","APOAPSIS":"548.416","MEAN_MOTION":"15.06412182","GP_ID":"200940823","PERIOD":"95.591","PERIAPSIS":"545.937","ELEMENT_SET_NO":"999","NORAD_CAT_ID":"47842","MEAN_MOTION_DOT":"0.00021487","RCS_SIZE":"LARGE"},{"CLASSIFICATION_TYPE":"U","MEAN_MOTION_DDOT":"0.0000000000000","EPHEMERIS_TYPE":"0","ARG_OF_PERICENTER":"41.0712","TLE_LINE2":"2 47843  53.0531 191.5297 0001949  41.0712 319.0423 15.06410950 61164","OBJECT_NAME":"STARLINK-2435","EPOCH":"2022-04-10T17:15:05.165856","ECCENTRICITY":"0.00019490","LAUNCH_DATE":"2021-03-11","MEAN_ELEMENT_THEORY":"SGP4","OBJECT_TYPE":"PAYLOAD","MEAN_ANOMALY":"319.0423","INCLINATION":"53.0531","OBJECT_ID":"2021-018BJ","FILE":"3396586","TIME_SYSTEM":"UTC","DECAY_DATE":null,"RA_OF_ASC_NODE":"191.5297","REV_AT_EPOCH":"6116","BSTAR":"0.00046274000000","TLE_LINE1":"1 47843U 21018BJ  22100.71880979  .00006620  00000-0  46274-3 0  9992","SITE":"AFETR","SEMIMAJOR_AXIS":"6925.315","COUNTRY_CODE":"US","GP_ID":"200941073","MEAN_MOTION":"15.06410950","APOAPSIS":"548.530","CENTER_NAME":"EARTH","REF_FRAME":"TEME","MEAN_MOTION_DOT":"0.00006620","RCS_SIZE":"LARGE","NORAD_CAT_ID":"47843","ELEMENT_SET_NO":"999","PERIOD":"95.591","PERIAPSIS":"545.830"},{"NORAD_CAT_ID":"47844","RCS_SIZE":"LARGE","MEAN_MOTION_DOT":"-0.00000043","ELEMENT_SET_NO":"999","PERIOD":"95.592","PERIAPSIS":"545.981","MEAN_MOTION":"15.06402215","APOAPSIS":"548.433","GP_ID":"200908452","REF_FRAME":"TEME","CENTER_NAME":"EARTH","TLE_LINE1":"1 47844U 21018BK  22100.51838740 -.00000043  00000-0  16041-4 0  9994","BSTAR":"0.00001604100000","RA_OF_ASC_NODE":"187.4281","REV_AT_EPOCH":"6118","TIME_SYSTEM":"UTC","DECAY_DATE":null,"COUNTRY_CODE":"US","SEMIMAJOR_AXIS":"6925.342","SITE":"AFETR","EPHEMERIS_TYPE":"0","MEAN_MOTION_DDOT":"0.0000000000000","CLASSIFICATION_TYPE":"U","FILE":"3396223","OBJECT_ID":"2021-018BK","INCLINATION":"53.0552","OBJECT_TYPE":"PAYLOAD","MEAN_ELEMENT_THEORY":"SGP4","MEAN_ANOMALY":"300.0334","ECCENTRICITY":"0.00017700","LAUNCH_DATE":"2021-03-11","ARG_OF_PERICENTER":"60.0831","OBJECT_NAME":"STARLINK-2446","TLE_LINE2":"2 47844  53.0552 187.4281 0001770  60.0831 300.0334 15.06402215 61188","EPOCH":"2022-04-10T12:26:28.671360"}];
